SKYSAT-A                
1 39418U 13066C   26192.92535079  .00001480  00000+0  86826-4 0  9997
2 39418  97.3805 241.5341 0020183 225.2191 134.7400 15.13105178692227
SKYSAT-B                
1 40072U 14037D   26192.87034045  .00000667  00000+0  79264-4 0  9999
2 40072  98.3853 153.2453 0005309 183.3680 176.7500 14.88087332649638
SKYSAT-C1               
1 41601U 16040C   26192.63835800  .00005514  00000+0  15589-3 0  9991
2 41601  96.9557 223.0369 0000645 355.4804   4.6435 15.36708815561620
SKYSAT-C4               
1 41771U 16058B   26192.62237898  .00010529  00000+0  19370-3 0  9994
2 41771  96.9168 213.3821 0003367 122.9938 237.1639 15.49356628549259
SKYSAT-C5               
1 41772U 16058C   26192.88383224  .00004541  00000+0  14168-3 0  9995
2 41772  97.0460 232.4196 0002212 170.0911 190.0377 15.33689978547532
SKYSAT-C2               
1 41773U 16058D   26192.58892983  .00007511  00000+0  17446-3 0  9992
2 41773  97.0160 213.7722 0001943   8.4873 351.6408 15.42624716548819
SKYSAT-C3               
1 41774U 16058E   26192.62742276  .00015432  00000+0  24355-3 0  9995
2 41774  96.9000 222.5485 0002310 132.6735 227.4714 15.53593180549904
SKYSAT-C11              
1 42987U 17068A   26192.71211125  .00018813  00000+0  24139-3 0  9994
2 42987  97.4366 342.6375 0000957 163.5740 196.5548 15.59189206487063
SKYSAT-C10              
1 42988U 17068B   26192.93609118  .00006459  00000+0  19221-3 0  9991
2 42988  97.4526 330.0351 0001403 108.5337 251.6059 15.35074302486158
SKYSAT-C9               
1 42989U 17068C   26192.18672867  .00008274  00000+0  19496-3 0  9991
2 42989  97.4444 330.4450 0008945  57.4451 302.7659 15.42149851486456
SKYSAT-C8               
1 42990U 17068D   26192.86941280  .00006258  00000+0  17273-3 0  9997
2 42990  97.4545 329.8628 0001248 101.2013 258.9372 15.37449279486107
SKYSAT-C7               
1 42991U 17068E   26192.86379282  .00006223  00000+0  17196-3 0  9991
2 42991  97.4553 330.8482 0005989  32.7055 327.4559 15.37400500486166
SKYSAT-C6               
1 42992U 17068F   26192.86656048  .00005678  00000+0  17431-3 0  9995
2 42992  97.4592 330.7193 0005162  97.3545 262.8285 15.34133330486105
SKYSAT-C12              
1 43797U 18099AR  26192.89633420  .00011268  00000+0  20456-3 0  9999
2 43797  96.9258 215.1504 0005571  77.6599 282.5277 15.49710045425684
